STARLINK-1031
1 24736C 19074Z   21325.13715350 -.00003778  00000-0 -25304-3 0  3250
2 24736  53.0554  52.6224 0001314  79.6437 335.8457 15.06411761    12
